{
  "type": "FeatureCollection",
  "features": [
    {
      "type": "Feature",
      "properties": {
        "norad_id": 35462,
        "name": "COSMOS 2251 DEB",
        "group": "cosmos-2251-debris",
        "lat": 52.08467718487915,
        "lon": 40.57279317315442,
        "alt_km": 841.8501023177851,
        "timestamp": "2025-12-27T08:36:18.780860+00:00",
        "meta_object_name": "COSMOS 2251 DEB",
        "meta_object_id": "1993-036ALG",
        "meta_epoch": "2025-12-24T22:54:22.815936",
        "meta_mean_motion": 14.29379641,
        "meta_eccentricity": 0.0086649,
        "meta_inclination": 74.0358,
        "meta_ra_of_asc_node": 246.4998,
        "meta_arg_of_pericenter": 279.062,
        "meta_mean_anomaly": 80.0732,
        "meta_ephemeris_type": 0,
        "meta_classification_type": "U",
        "meta_norad_cat_id": 35462,
        "meta_element_set_no": 999,
        "meta_rev_at_epoch": 66555,
        "meta_bstar": 0.0013247,
        "meta_mean_motion_dot": 3.491e-05,
        "meta_mean_motion_ddot": 0,
        "tle_line1": "1 35462U 93036ALG 25358.95443074  .00003491  00000+0  13247-2 0  9995",
        "tle_line2": "2 35462  74.0358 246.4998 0086649 279.0620  80.0732 14.29379641665553"
      },
      "geometry": {
        "type": "Point",
        "coordinates": [
          40.57279317315442,
          52.08467718487915
        ]
      }
    },
    {
      "type": "Feature",
      "properties": {
        "norad_id": 35465,
        "name": "COSMOS 2251 DEB",
        "group": "cosmos-2251-debris",
        "lat": -65.97965067171428,
        "lon": 29.850810078924773,
        "alt_km": 738.843953660973,
        "timestamp": "2025-12-27T08:36:18.780870+00:00",
        "meta_object_name": "COSMOS 2251 DEB",
        "meta_object_id": "1993-036ALK",
        "meta_epoch": "2025-12-23T05:21:40.851936",
        "meta_mean_motion": 14.44343886,
        "meta_eccentricity": 0.00645011,
        "meta_inclination": 73.9972,
        "meta_ra_of_asc_node": 177.4731,
        "meta_arg_of_pericenter": 335.4735,
        "meta_mean_anomaly": 24.3357,
        "meta_ephemeris_type": 0,
        "meta_classification_type": "U",
        "meta_norad_cat_id": 35465,
        "meta_element_set_no": 999,
        "meta_rev_at_epoch": 87393,
        "meta_bstar": 0.00030952177,
        "meta_mean_motion_dot": 1.064e-05,
        "meta_mean_motion_ddot": 0,
        "tle_line1": "1 35465U 93036ALK 25357.22338949  .00001064  00000+0  30952-3 0  9998",
        "tle_line2": "2 35465  73.9972 177.4731 0064501 335.4735  24.3357 14.44343886873937"
      },
      "geometry": {
        "type": "Point",
        "coordinates": [
          29.850810078924773,
          -65.97965067171428
        ]
      }
    },
    {
      "type": "Feature",
      "properties": {
        "norad_id": 35469,
        "name": "COSMOS 2251 DEB",
        "group": "cosmos-2251-debris",
        "lat": 15.859237263819585,
        "lon": 1.061775323810105,
        "alt_km": 762.248432607169,
        "timestamp": "2025-12-27T08:36:18.780894+00:00",
        "meta_object_name": "COSMOS 2251 DEB",
        "meta_object_id": "1993-036ALP",
        "meta_epoch": "2025-12-25T08:30:10.757088",
        "meta_mean_motion": 14.49829741,
        "meta_eccentricity": 0.0076333,
        "meta_inclination": 74.0167,
        "meta_ra_of_asc_node": 0.1572,
        "meta_arg_of_pericenter": 152.3641,
        "meta_mean_anomaly": 208.161,
        "meta_ephemeris_type": 0,
        "meta_classification_type": "U",
        "meta_norad_cat_id": 35469,
        "meta_element_set_no": 999,
        "meta_rev_at_epoch": 88294,
        "meta_bstar": 9.3047e-05,
        "meta_mean_motion_dot": 3.43e-06,
        "meta_mean_motion_ddot": 0,
        "tle_line1": "1 35469U 93036ALP 25359.35429117  .00000343  00000+0  93047-4 0  9990",
        "tle_line2": "2 35469  74.0167   0.1572 0076333 152.3641 208.1610 14.49829741882941"
      },
      "geometry": {
        "type": "Point",
        "coordinates": [
          1.061775323810105,
          15.859237263819585
        ]
      }
    },
    {
      "type": "Feature",
      "properties": {
        "norad_id": 35475,
        "name": "COSMOS 2251 DEB",
        "group": "cosmos-2251-debris",
        "lat": -24.192639262384102,
        "lon": -35.34047221058982,
        "alt_km": 652.1637909004176,
        "timestamp": "2025-12-27T08:36:18.780905+00:00",
        "meta_object_name": "COSMOS 2251 DEB",
        "meta_object_id": "1993-036ALV",
        "meta_epoch": "2025-12-26T15:20:30.310944",
        "meta_mean_motion": 14.70039773,
        "meta_eccentricity": 0.0019833,
        "meta_inclination": 74.022,
        "meta_ra_of_asc_node": 138.659,
        "meta_arg_of_pericenter": 211.7457,
        "meta_mean_anomaly": 148.252,
        "meta_ephemeris_type": 0,
        "meta_classification_type": "U",
        "meta_norad_cat_id": 35475,
        "meta_element_set_no": 999,
        "meta_rev_at_epoch": 65821,
        "meta_bstar": 0.0022731,
        "meta_mean_motion_dot": 0.00013682,
        "meta_mean_motion_ddot": 0,
        "tle_line1": "1 35475U 93036ALV 25360.63923971  .00013682  00000+0  22731-2 0  9997",
        "tle_line2": "2 35475  74.0220 138.6590 0019833 211.7457 148.2520 14.70039773658219"
      },
      "geometry": {
        "type": "Point",
        "coordinates": [
          -35.34047221058982,
          -24.192639262384102
        ]
      }
    },
    {
      "type": "Feature",
      "properties": {
        "norad_id": 35476,
        "name": "COSMOS 2251 DEB",
        "group": "cosmos-2251-debris",
        "lat": 3.3016076692599965,
        "lon": 33.15644123636762,
        "alt_km": 631.2537139196447,
        "timestamp": "2025-12-27T08:36:18.780915+00:00",
        "meta_object_name": "COSMOS 2251 DEB",
        "meta_object_id": "1993-036ALW",
        "meta_epoch": "2025-12-26T20:22:25.377312",
        "meta_mean_motion": 14.75965598,
        "meta_eccentricity": 0.00185898,
        "meta_inclination": 73.9779,
        "meta_ra_of_asc_node": 33.2072,
        "meta_arg_of_pericenter": 9.0948,
        "meta_mean_anomaly": 167.5967,
        "meta_ephemeris_type": 0,
        "meta_classification_type": "U",
        "meta_norad_cat_id": 35476,
        "meta_element_set_no": 999,
        "meta_rev_at_epoch": 88095,
        "meta_bstar": 0.0016127497,
        "meta_mean_motion_dot": 0.00011113,
        "meta_mean_motion_ddot": 0,
        "tle_line1": "1 35476U 93036ALW 25360.84890483  .00011113  00000+0  16127-2 0  9991",
        "tle_line2": "2 35476  73.9779  33.2072 0018589   9.0948 167.5967 14.75965598880957"
      },
      "geometry": {
        "type": "Point",
        "coordinates": [
          33.15644123636762,
          3.3016076692599965
        ]
      }
    },
    {
      "type": "Feature",
      "properties": {
        "norad_id": 35580,
        "name": "COSMOS 2251 DEB",
        "group": "cosmos-2251-debris",
        "lat": -45.83939510034924,
        "lon": 136.5630117846696,
        "alt_km": 1142.1480732350956,
        "timestamp": "2025-12-27T08:36:18.780926+00:00",
        "meta_object_name": "COSMOS 2251 DEB",
        "meta_object_id": "1993-036ALX",
        "meta_epoch": "2025-12-27T03:38:47.457024",
        "meta_mean_motion": 13.83953444,
        "meta_eccentricity": 0.0280309,
        "meta_inclination": 73.9018,
        "meta_ra_of_asc_node": 154.2138,
        "meta_arg_of_pericenter": 156.6892,
        "meta_mean_anomaly": 204.724,
        "meta_ephemeris_type": 0,
        "meta_classification_type": "U",
        "meta_norad_cat_id": 35580,
        "meta_element_set_no": 999,
        "meta_rev_at_epoch": 62456,
        "meta_bstar": 0.0026233,
        "meta_mean_motion_dot": 3.926e-05,
        "meta_mean_motion_ddot": 0,
        "tle_line1": "1 35580U 93036ALX 25361.15193816  .00003926  00000+0  26233-2 0  9990",
        "tle_line2": "2 35580  73.9018 154.2138 0280309 156.6892 204.7240 13.83953444624560"
      },
      "geometry": {
        "type": "Point",
        "coordinates": [
          136.5630117846696,
          -45.83939510034924
        ]
      }
    },
    {
      "type": "Feature",
      "properties": {
        "norad_id": 35583,
        "name": "COSMOS 2251 DEB",
        "group": "cosmos-2251-debris",
        "lat": -48.38626388334138,
        "lon": 169.37064393743987,
        "alt_km": 1092.9910343175661,
        "timestamp": "2025-12-27T08:36:18.780936+00:00",
        "meta_object_name": "COSMOS 2251 DEB",
        "meta_object_id": "1993-036AMA",
        "meta_epoch": "2025-12-25T05:29:42.958752",
        "meta_mean_motion": 13.55357514,
        "meta_eccentricity": 0.0384921,
        "meta_inclination": 73.9156,
        "meta_ra_of_asc_node": 191.7748,
        "meta_arg_of_pericenter": 213.8276,
        "meta_mean_anomaly": 143.7737,
        "meta_ephemeris_type": 0,
        "meta_classification_type": "U",
        "meta_norad_cat_id": 35583,
        "meta_element_set_no": 999,
        "meta_rev_at_epoch": 82581,
        "meta_bstar": 0.00086553,
        "meta_mean_motion_dot": 9.41e-06,
        "meta_mean_motion_ddot": 0,
        "tle_line1": "1 35583U 93036AMA 25359.22896943  .00000941  00000+0  86553-3 0  9995",
        "tle_line2": "2 35583  73.9156 191.7748 0384921 213.8276 143.7737 13.55357514825815"
      },
      "geometry": {
        "type": "Point",
        "coordinates": [
          169.37064393743987,
          -48.38626388334138
        ]
      }
    }
  ]
}